[{"OBJECT_NAME":"KUIPER-00210","OBJECT_ID":"2025-301P","EPOCH":"2026-03-06T06:00:02.000160","MEAN_MOTION":14.83911711,"ECCENTRICITY":0.00101975,"INCLINATION":51.899,"RA_OF_ASC_NODE":88.4174,"ARG_OF_PERICENTER":57.7411,"MEAN_ANOMALY":119.4839,"EPHEMERIS_TYPE":0,"CLASSIFICATION_TYPE":"U","NORAD_CAT_ID":67146,"ELEMENT_SET_NO":999,"REV_AT_EPOCH":571,"BSTAR":-0.0057779069,"MEAN_MOTION_DOT":-0.00048399,"MEAN_MOTION_DDOT":0},{"OBJECT_NAME":"KUIPER-00221","OBJECT_ID":"2025-301Q","EPOCH":"2026-03-06T05:34:46.026624","MEAN_MOTION":14.79962274,"ECCENTRICITY":6.772e-5,"INCLINATION":51.9027,"RA_OF_ASC_NODE":95.8928,"ARG_OF_PERICENTER":108.8388,"MEAN_ANOMALY":251.2648,"EPHEMERIS_TYPE":0,"CLASSIFICATION_TYPE":"U","NORAD_CAT_ID":67147,"ELEMENT_SET_NO":999,"REV_AT_EPOCH":1301,"BSTAR":-0.00013449232,"MEAN_MOTION_DOT":-1.247e-5,"MEAN_MOTION_DDOT":0},{"OBJECT_NAME":"KUIPER-00232","OBJECT_ID":"2025-301R","EPOCH":"2026-03-06T06:00:02.000160","MEAN_MOTION":15.13906146,"ECCENTRICITY":0.00031209,"INCLINATION":51.8859,"RA_OF_ASC_NODE":82.588,"ARG_OF_PERICENTER":133.2432,"MEAN_ANOMALY":334.5813,"EPHEMERIS_TYPE":0,"CLASSIFICATION_TYPE":"U","NORAD_CAT_ID":67148,"ELEMENT_SET_NO":999,"REV_AT_EPOCH":543,"BSTAR":-0.064637741,"MEAN_MOTION_DOT":-0.01096059,"MEAN_MOTION_DDOT":0},{"OBJECT_NAME":"KUIPER-00241","OBJECT_ID":"2025-301S","EPOCH":"2026-03-06T05:42:24.705216","MEAN_MOTION":14.79974287,"ECCENTRICITY":9.834e-5,"INCLINATION":51.9016,"RA_OF_ASC_NODE":90.8748,"ARG_OF_PERICENTER":122.1073,"MEAN_ANOMALY":237.9985,"EPHEMERIS_TYPE":0,"CLASSIFICATION_TYPE":"U","NORAD_CAT_ID":67149,"ELEMENT_SET_NO":999,"REV_AT_EPOCH":1341,"BSTAR":-0.0045899067,"MEAN_MOTION_DOT":-0.00035064,"MEAN_MOTION_DDOT":0},{"OBJECT_NAME":"KUIPER-00245","OBJECT_ID":"2025-301T","EPOCH":"2026-03-05T01:57:46.878048","MEAN_MOTION":14.79932036,"ECCENTRICITY":5.258e-5,"INCLINATION":51.9025,"RA_OF_ASC_NODE":103.5032,"ARG_OF_PERICENTER":66.5774,"MEAN_ANOMALY":293.5243,"EPHEMERIS_TYPE":0,"CLASSIFICATION_TYPE":"U","NORAD_CAT_ID":67150,"ELEMENT_SET_NO":999,"REV_AT_EPOCH":1280,"BSTAR":-0.00020996179,"MEAN_MOTION_DOT":-1.821e-5,"MEAN_MOTION_DDOT":0},{"OBJECT_NAME":"KUIPER-00246","OBJECT_ID":"2025-301U","EPOCH":"2026-03-06T06:00:02.000160","MEAN_MOTION":15.05547735,"ECCENTRICITY":0.00051151,"INCLINATION":51.905,"RA_OF_ASC_NODE":84.0716,"ARG_OF_PERICENTER":55.6759,"MEAN_ANOMALY":109.9756,"EPHEMERIS_TYPE":0,"CLASSIFICATION_TYPE":"U","NORAD_CAT_ID":67151,"ELEMENT_SET_NO":999,"REV_AT_EPOCH":561,"BSTAR":-0.085503937,"MEAN_MOTION_DOT":-0.0114658,"MEAN_MOTION_DDOT":0},{"OBJECT_NAME":"KUIPER-00247","OBJECT_ID":"2025-301V","EPOCH":"2026-03-06T05:27:38.874528","MEAN_MOTION":15.36688101,"ECCENTRICITY":0.00143564,"INCLINATION":51.8627,"RA_OF_ASC_NODE":82.6997,"ARG_OF_PERICENTER":42.5463,"MEAN_ANOMALY":317.6633,"EPHEMERIS_TYPE":0,"CLASSIFICATION_TYPE":"U","NORAD_CAT_ID":67152,"ELEMENT_SET_NO":999,"REV_AT_EPOCH":1319,"BSTAR":0.00078565159,"MEAN_MOTION_DOT":0.00028397,"MEAN_MOTION_DDOT":0},{"OBJECT_NAME":"KUIPER-00248","OBJECT_ID":"2025-301W","EPOCH":"2026-03-06T06:14:07.069056","MEAN_MOTION":15.37285873,"ECCENTRICITY":0.00105274,"INCLINATION":51.8664,"RA_OF_ASC_NODE":82.2067,"ARG_OF_PERICENTER":32.5863,"MEAN_ANOMALY":327.5771,"EPHEMERIS_TYPE":0,"CLASSIFICATION_TYPE":"U","NORAD_CAT_ID":67153,"ELEMENT_SET_NO":999,"REV_AT_EPOCH":1337,"BSTAR":0.00095648517,"MEAN_MOTION_DOT":0.00035319,"MEAN_MOTION_DDOT":0},{"OBJECT_NAME":"KUIPER-00249","OBJECT_ID":"2025-301X","EPOCH":"2026-03-06T05:34:42.749472","MEAN_MOTION":15.37954079,"ECCENTRICITY":0.00106784,"INCLINATION":51.8649,"RA_OF_ASC_NODE":82.0135,"ARG_OF_PERICENTER":31.9933,"MEAN_ANOMALY":328.17,"EPHEMERIS_TYPE":0,"CLASSIFICATION_TYPE":"U","NORAD_CAT_ID":67154,"ELEMENT_SET_NO":999,"REV_AT_EPOCH":1320,"BSTAR":0.00081233678,"MEAN_MOTION_DOT":0.00030581,"MEAN_MOTION_DDOT":0},{"OBJECT_NAME":"KUIPER-00250","OBJECT_ID":"2025-301Y","EPOCH":"2026-03-06T06:00:02.000160","MEAN_MOTION":14.96632612,"ECCENTRICITY":0.00099027,"INCLINATION":51.894,"RA_OF_ASC_NODE":85.5392,"ARG_OF_PERICENTER":41.8826,"MEAN_ANOMALY":126.1431,"EPHEMERIS_TYPE":0,"CLASSIFICATION_TYPE":"U","NORAD_CAT_ID":67155,"ELEMENT_SET_NO":999,"REV_AT_EPOCH":579,"BSTAR":-0.17972117,"MEAN_MOTION_DOT":-0.01902596,"MEAN_MOTION_DDOT":0},{"OBJECT_NAME":"KUIPER-00251","OBJECT_ID":"2025-301Z","EPOCH":"2026-03-06T05:59:17.005632","MEAN_MOTION":15.37476241,"ECCENTRICITY":0.00105077,"INCLINATION":51.8662,"RA_OF_ASC_NODE":82.1315,"ARG_OF_PERICENTER":36.3318,"MEAN_ANOMALY":323.838,"EPHEMERIS_TYPE":0,"CLASSIFICATION_TYPE":"U","NORAD_CAT_ID":67156,"ELEMENT_SET_NO":999,"REV_AT_EPOCH":1339,"BSTAR":0.0010235042,"MEAN_MOTION_DOT":0.0003807,"MEAN_MOTION_DDOT":0},{"OBJECT_NAME":"KUIPER-00252","OBJECT_ID":"2025-301AA","EPOCH":"2026-03-06T04:51:23.214528","MEAN_MOTION":15.37199,"ECCENTRICITY":0.00127085,"INCLINATION":51.865,"RA_OF_ASC_NODE":82.5599,"ARG_OF_PERICENTER":38.1776,"MEAN_ANOMALY":322.0108,"EPHEMERIS_TYPE":0,"CLASSIFICATION_TYPE":"U","NORAD_CAT_ID":67157,"ELEMENT_SET_NO":999,"REV_AT_EPOCH":1319,"BSTAR":0.00099726558,"MEAN_MOTION_DOT":0.00036774,"MEAN_MOTION_DDOT":0},{"OBJECT_NAME":"KUIPER-00261","OBJECT_ID":"2025-301AB","EPOCH":"2026-03-06T06:00:02.000160","MEAN_MOTION":14.92693324,"ECCENTRICITY":0.00107562,"INCLINATION":51.8962,"RA_OF_ASC_NODE":85.8216,"ARG_OF_PERICENTER":38.1,"MEAN_ANOMALY":219.6781,"EPHEMERIS_TYPE":0,"CLASSIFICATION_TYPE":"U","NORAD_CAT_ID":67158,"ELEMENT_SET_NO":999,"REV_AT_EPOCH":542,"BSTAR":-0.0082886953,"MEAN_MOTION_DOT":-0.00085679,"MEAN_MOTION_DDOT":0},{"OBJECT_NAME":"KUIPER-00265","OBJECT_ID":"2025-301AC","EPOCH":"2026-03-05T10:00:08.461440","MEAN_MOTION":14.79927863,"ECCENTRICITY":0.0001279,"INCLINATION":51.9022,"RA_OF_ASC_NODE":104.507,"ARG_OF_PERICENTER":27.4554,"MEAN_ANOMALY":332.6476,"EPHEMERIS_TYPE":0,"CLASSIFICATION_TYPE":"U","NORAD_CAT_ID":67159,"ELEMENT_SET_NO":999,"REV_AT_EPOCH":1285,"BSTAR":0.00065266,"MEAN_MOTION_DOT":4.757e-5,"MEAN_MOTION_DDOT":0},{"OBJECT_NAME":"KUIPER-00159","OBJECT_ID":"2026-030A","EPOCH":"2026-03-05T23:42:41.701824","MEAN_MOTION":15.35582325,"ECCENTRICITY":0.00048376,"INCLINATION":51.8846,"RA_OF_ASC_NODE":237.0166,"ARG_OF_PERICENTER":34.2445,"MEAN_ANOMALY":325.8853,"EPHEMERIS_TYPE":0,"CLASSIFICATION_TYPE":"U","NORAD_CAT_ID":67764,"ELEMENT_SET_NO":999,"REV_AT_EPOCH":452,"BSTAR":0.00086657068,"MEAN_MOTION_DOT":0.0003018,"MEAN_MOTION_DDOT":0},{"OBJECT_NAME":"KUIPER-00160","OBJECT_ID":"2026-030B","EPOCH":"2026-03-06T01:18:14.314176","MEAN_MOTION":15.35420681,"ECCENTRICITY":0.00048479,"INCLINATION":51.8811,"RA_OF_ASC_NODE":236.7016,"ARG_OF_PERICENTER":46.0394,"MEAN_ANOMALY":314.0991,"EPHEMERIS_TYPE":0,"CLASSIFICATION_TYPE":"U","NORAD_CAT_ID":67765,"ELEMENT_SET_NO":999,"REV_AT_EPOCH":453,"BSTAR":0.00088592332,"MEAN_MOTION_DOT":0.00030704,"MEAN_MOTION_DDOT":0}]
