KUIPER-00210            
1 67146U 25301P   26065.25002315 -.00048399  00000+0 -57779-2 0  9993
2 67146  51.8990  88.4174 0010197  57.7411 119.4839 14.83911711  5717
KUIPER-00221            
1 67147U 25301Q   26065.23247716 -.00001247  00000+0 -13449-3 0  9996
2 67147  51.9027  95.8928 0000677 108.8388 251.2648 14.79962274 13012
KUIPER-00232            
1 67148U 25301R   26065.25002315 -.01096059  00000+0 -64638-1 0  9993
2 67148  51.8859  82.5880 0003120 133.2432 334.5813 15.13906146  5434
KUIPER-00241            
1 67149U 25301S   26065.23778594 -.00035064  00000+0 -45899-2 0  9998
2 67149  51.9016  90.8748 0000983 122.1073 237.9985 14.79974287 13413
KUIPER-00245            
1 67150U 25301T   26064.08179257 -.00001821  00000+0 -20996-3 0  9999
2 67150  51.9025 103.5032 0000525  66.5774 293.5243 14.79932036 12807
KUIPER-00246            
1 67151U 25301U   26065.25002315 -.01146580  00000+0 -85504-1 0  9997
2 67151  51.9050  84.0716 0005115  55.6759 109.9756 15.05547735  5618
KUIPER-00247            
1 67152U 25301V   26065.22753327  .00028397  00000+0  78565-3 0  9994
2 67152  51.8627  82.6997 0014356  42.5463 317.6633 15.36688101 13198
KUIPER-00248            
1 67153U 25301W   26065.25980404  .00035319  00000+0  95649-3 0  9990
2 67153  51.8664  82.2067 0010527  32.5863 327.5771 15.37285873 13376
KUIPER-00249            
1 67154U 25301X   26065.23243923  .00030581  00000+0  81234-3 0  9998
2 67154  51.8649  82.0135 0010678  31.9933 328.1700 15.37954079 13204
KUIPER-00250            
1 67155U 25301Y   26065.25002315 -.01902596  00000+0 -17972+0 0  9990
2 67155  51.8940  85.5392 0009902  41.8826 126.1431 14.96632612  5793
KUIPER-00251            
1 67156U 25301Z   26065.24950238  .00038070  00000+0  10235-2 0  9998
2 67156  51.8662  82.1315 0010507  36.3318 323.8380 15.37476241 13395
KUIPER-00252            
1 67157U 25301AA  26065.20235202  .00036774  00000+0  99727-3 0  9995
2 67157  51.8650  82.5599 0012708  38.1776 322.0108 15.37199000 13196
KUIPER-00261            
1 67158U 25301AB  26065.25002315 -.00085679  00000+0 -82887-2 0  9996
2 67158  51.8962  85.8216 0010756  38.1000 219.6781 14.92693324  5429
KUIPER-00265            
1 67159U 25301AC  26064.41676460  .00004757  00000+0  65266-3 0  9991
2 67159  51.9022 104.5070 0001279  27.4554 332.6476 14.79927863 12855
KUIPER-00159            
1 67764U 26030A   26064.98798266  .00030180  00000+0  86657-3 0  9990
2 67764  51.8846 237.0166 0004837  34.2445 325.8853 15.35582325  4527
KUIPER-00160            
1 67765U 26030B   26065.05433234  .00030704  00000+0  88592-3 0  9993
2 67765  51.8811 236.7016 0004847  46.0394 314.0991 15.35420681  4535
